$$SOE
2461295.500000000, A.D. 2026-Sep-12 00:00:00.0000, -2.113722436309872E+08, -2.510571933675669E+08, 5.685039822817362E+07,
2461302.500000000, A.D. 2026-Sep-19 00:00:00.0000, -2.007854477064236E+08, -2.579360825004916E+08, 5.921066888645051E+07,
2461309.500000000, A.D. 2026-Sep-26 00:00:00.0000, -1.899328070943085E+08, -2.644734383849859E+08, 6.149253431206023E+07,
2461316.500000000, A.D. 2026-Oct-03 00:00:00.0000, -1.788268017753743E+08, -2.706579774786106E+08, 6.369236161794365E+07,
2461323.500000000, A.D. 2026-Oct-10 00:00:00.0000, -1.674805745056589E+08, -2.764789221871027E+08, 6.580662079529935E+07,
2461330.500000000, A.D. 2026-Oct-17 00:00:00.0000, -1.559079063437986E+08, -2.819260463162013E+08, 6.783189810731022E+07,
2461337.500000000, A.D. 2026-Oct-24 00:00:00.0000, -1.441231880607756E+08, -2.869897192856626E+08, 6.976490932004043E+07,
2461344.500000000, A.D. 2026-Oct-31 00:00:00.0000, -1.321413874033027E+08, -2.916609487594751E+08, 7.160251264284471E+07,
2461351.500000000, A.D. 2026-Nov-07 00:00:00.0000, -1.199780119920074E+08, -2.959314212072195E+08, 7.334172123776467E+07,
2461358.500000000, A.D. 2026-Nov-14 00:00:00.0000, -1.076490678251852E+08, -2.997935391068071E+08, 7.497971523618138E+07,
2461365.500000000, A.D. 2026-Nov-21 00:00:00.0000, -9.517101542220603E+07, -3.032404537188315E+08, 7.651385336984900E+07,
2461372.500000000, A.D. 2026-Nov-28 00:00:00.0000, -8.256072487503068E+07, -3.062660960751538E+08, 7.794168395022693E+07,
2461379.500000000, A.D. 2026-Dec-05 00:00:00.0000, -6.983542650569122E+07, -3.088652065054438E+08, 7.926095470559922E+07,
2461386.500000000, A.D. 2026-Dec-12 00:00:00.0000, -5.701265732741601E+07, -3.110333592949753E+08, 8.046962161907798E+07,
2461393.500000000, A.D. 2026-Dec-19 00:00:00.0000, -4.411020559799060E+07, -3.127669822106048E+08, 8.156585685380414E+07,
2461400.500000000, A.D. 2026-Dec-26 00:00:00.0000, -3.114605404128331E+07, -3.140633715513555E+08, 8.254805563019116E+07,
2461407.500000000, A.D. 2027-Jan-02 00:00:00.0000, -1.813832192065536E+07, -3.149207027528214E+08, 8.341484194847910E+07,
2461414.500000000, A.D. 2027-Jan-09 00:00:00.0000, -5.105206324972969E+06, -3.153380364168944E+08, 8.416507309426770E+07,
2461421.500000000, A.D. 2027-Jan-16 00:00:00.0000, 7.935076880453708E+06, -3.153153197065749E+08, 8.479784288592987E+07,
2461428.500000000, A.D. 2027-Jan-23 00:00:00.0000, 2.096435199288329E+07, -3.148533831526107E+08, 8.531248363442546E+07,
2461435.500000000, A.D. 2027-Jan-30 00:00:00.0000, 3.396454200095723E+07, -3.139539329837065E+08, 8.570856678859323E+07,
2461442.500000000, A.D. 2027-Feb-06 00:00:00.0000, 4.691772665184139E+07, -3.126195387582091E+08, 8.598590226381159E+07,
2461449.500000000, A.D. 2027-Feb-13 00:00:00.0000, 5.980619914018089E+07, -3.108536152465110E+08, 8.614453661900899E+07,
2461456.500000000, A.D. 2027-Feb-20 00:00:00.0000, 7.261251862627375E+07, -3.086603995704153E+08, 8.618475027018541E+07,
2461463.500000000, A.D. 2027-Feb-27 00:00:00.0000, 8.531955958614630E+07, -3.060449270710304E+08, 8.610705339853510E+07,
2461470.500000000, A.D. 2027-Mar-06 00:00:00.0000, 9.791056065884994E+07, -3.030130042820825E+08, 8.591218049650723E+07,
2461477.500000000, A.D. 2027-Mar-13 00:00:00.0000, 1.103691710796842E+08, -2.995711772933112E+08, 8.560108394150180E+07,
2461484.500000000, A.D. 2027-Mar-20 00:00:00.0000, 1.226794933035246E+08, -2.957266966980088E+08, 8.517492671690658E+07,
2461491.500000000, A.D. 2027-Mar-27 00:00:00.0000, 1.348261218009346E+08, -2.914874800519177E+08, 8.463507430835080E+07,
2461498.500000000, A.D. 2027-Apr-03 00:00:00.0000, 1.467941780579093E+08, -2.868620722815819E+08, 8.398308584846568E+07,
2461505.500000000, A.D. 2027-Apr-10 00:00:00.0000, 1.585693417157345E+08, -2.818596044131253E+08, 8.322070460350539E+07,
2461512.500000000, A.D. 2027-Apr-17 00:00:00.0000, 1.701378777974624E+08, -2.764897510253084E+08, 8.234984789492869E+07,
2461519.500000000, A.D. 2027-Apr-24 00:00:00.0000, 1.814866600767342E+08, -2.707626868696921E+08, 8.137259654064769E+07,
2461526.500000000, A.D. 2027-May-01 00:00:00.0000, 1.926031909157121E+08, -2.646890430024879E+08, 8.029118389208722E+07,
2461533.500000000, A.D. 2027-May-08 00:00:00.0000, 2.034756179485862E+08, -2.582798620435684E+08, 7.910798460509215E+07,
2461540.500000000, A.D. 2027-May-15 00:00:00.0000, 2.140927462147513E+08, -2.515465519576665E+08, 7.782550346245320E+07,
2461547.500000000, A.D. 2027-May-22 00:00:00.0000, 2.244440443055940E+08, -2.445008412715746E+08, 7.644636427351981E+07,
2461554.500000000, A.D. 2027-May-29 00:00:00.0000, 2.345196480361957E+08, -2.371547374862097E+08, 7.497329850780192E+07,
2461561.500000000, A.D. 2027-Jun-05 00:00:00.0000, 2.443103627089809E+08, -2.295204858136449E+08, 7.340913391586679E+07,
2461568.500000000, A.D. 2027-Jun-12 00:00:00.0000, 2.538076621642639E+08, -2.216105280405828E+08, 7.175678342898217E+07,
2461575.500000000, A.D. 2027-Jun-19 00:00:00.0000, 2.630036845039968E+08, -2.134374626557625E+08, 7.001923435588783E+07,
2461582.500000000, A.D. 2027-Jun-26 00:00:00.0000, 2.718912249966219E+08, -2.050140066745136E+08, 6.819953788673259E+07,
2461589.500000000, A.D. 2027-Jul-03 00:00:00.0000, 2.804637265308896E+08, -1.963529592947014E+08, 6.630079894258963E+07,
2461596.500000000, A.D. 2027-Jul-10 00:00:00.0000, 2.887152678943977E+08, -1.874671674898656E+08, 6.432616641052613E+07,
2461603.500000000, A.D. 2027-Jul-17 00:00:00.0000, 2.966405501510746E+08, -1.783694936660651E+08, 6.227882379280342E+07,
2461610.500000000, A.D. 2027-Jul-24 00:00:00.0000, 3.042348815073988E+08, -1.690727855061772E+08, 6.016198027797624E+07,
2461617.500000000, A.D. 2027-Jul-31 00:00:00.0000, 3.114941613073385E+08, -1.595898478012449E+08, 5.797886223620509E+07,
2461624.500000000, A.D. 2027-Aug-07 00:00:00.0000, 3.184148631798197E+08, -1.499334151322408E+08, 5.573270526807857E+07,
2461631.500000000, A.D. 2027-Aug-14 00:00:00.0000, 3.249940152523206E+08, -1.401161256561845E+08, 5.342674700872818E+07,
2461638.500000000, A.D. 2027-Aug-21 00:00:00.0000, 3.312291782460783E+08, -1.301504993432275E+08, 5.106422035864668E+07,
2461645.500000000, A.D. 2027-Aug-28 00:00:00.0000, 3.371184250665373E+08, -1.200489194236584E+08, 4.864834692174219E+07,
2461652.500000000, A.D. 2027-Sep-04 00:00:00.0000, 3.426603208800371E+08, -1.098236144909615E+08, 4.618233095744949E+07,
2461659.500000000, A.D. 2027-Sep-11 00:00:00.0000, 3.478539024407848E+08, -9.948664186034037E+07, 4.366935391178188E+07,
2461666.500000000, A.D. 2027-Sep-18 00:00:00.0000, 3.526986569467789E+08, -8.904987276082702E+07, 4.111256944996922E+07,
2461673.500000000, A.D. 2027-Sep-25 00:00:00.0000, 3.571945007864795E+08, -7.852497935833324E+07, 3.851509894932383E+07,
2461680.500000000, A.D. 2027-Oct-02 00:00:00.0000, 3.613417583725504E+08, -6.792342349655974E+07, 3.588002743222924E+07,
2461687.500000000, A.D. 2027-Oct-09 00:00:00.0000, 3.651411411946527E+08, -5.725644707214476E+07, 3.321039991992660E+07,
2461694.500000000, A.D. 2027-Oct-16 00:00:00.0000, 3.685937272512483E+08, -4.653506401012549E+07, 3.050921817823010E+07,
2461701.500000000, A.D. 2027-Oct-23 00:00:00.0000, 3.717009412024000E+08, -3.577005375639468E+07, 2.777943781023412E+07,
2461708.500000000, A.D. 2027-Oct-30 00:00:00.0000, 3.744645356855369E+08, -2.497195558538959E+07, 2.502396568941189E+07,
2461715.500000000, A.D. 2027-Nov-06 00:00:00.0000, 3.768865726901342E+08, -1.415106250099059E+07, 2.224565791059761E+07,
2461722.500000000, A.D. 2027-Nov-13 00:00:00.0000, 3.789694030601314E+08, -3.317416717785421E+06, 1.944731825044917E+07,
2461729.500000000, A.D. 2027-Nov-20 00:00:00.0000, 3.807156470654820E+08, 7.519191176024004E+06, 1.663169667020475E+07,
2461736.500000000, A.D. 2027-Nov-27 00:00:00.0000, 3.821281776876247E+08, 1.834922242455640E+07, 1.380148793227907E+07,
2461743.500000000, A.D. 2027-Dec-04 00:00:00.0000, 3.832101046184595E+08, 2.916339067730425E+07, 1.095933057011751E+07,
2461750.500000000, A.D. 2027-Dec-11 00:00:00.0000, 3.839647584405885E+08, 3.995266204502454E+07, 8.107806162987474E+06,
2461757.500000000, A.D. 2027-Dec-18 00:00:00.0000, 3.843956752759072E+08, 5.070825437441577E+07, 5.249438843234625E+06,
2461764.500000000, A.D. 2027-Dec-25 00:00:00.0000, 3.845065820604993E+08, 6.142163580971110E+07, 2.386695002885796E+06,
2461771.500000000, A.D. 2028-Jan-01 00:00:00.0000, 3.843013824869485E+08, 7.208452272121455E+07, -4.780168213768154E+05,
$$EOE